[{"OBJECT_NAME":"STARLINK-5480","OBJECT_ID":"2023-021AN","EPOCH":"2026-03-09T22:00:01.999584","MEAN_MOTION":14.98352472,"ECCENTRICITY":0.0003256,"INCLINATION":70.001,"RA_OF_ASC_NODE":163.9699,"ARG_OF_PERICENTER":271.3412,"MEAN_ANOMALY":188.798,"EPHEMERIS_TYPE":0,"CLASSIFICATION_TYPE":"U","NORAD_CAT_ID":55664,"ELEMENT_SET_NO":999,"REV_AT_EPOCH":576,"BSTAR":-0.0037639134,"MEAN_MOTION_DOT":-0.00044745,"MEAN_MOTION_DDOT":0},{"OBJECT_NAME":"IKONOS 2","OBJECT_ID":"1999-051A","EPOCH":"2026-03-09T15:19:40.153152","MEAN_MOTION":14.96976552,"ECCENTRICITY":0.0006412,"INCLINATION":98.1486,"RA_OF_ASC_NODE":313.4587,"ARG_OF_PERICENTER":157.8343,"MEAN_ANOMALY":202.3156,"EPHEMERIS_TYPE":0,"CLASSIFICATION_TYPE":"U","NORAD_CAT_ID":25919,"ELEMENT_SET_NO":999,"REV_AT_EPOCH":42402,"BSTAR":0.00024901,"MEAN_MOTION_DOT":2.801e-5,"MEAN_MOTION_DDOT":0}]
